STARLINK-2065           
1 47672U 21012BE  26068.25173490  .00113313  00000+0  96340-3 0  9991
2 47672  53.1532  11.1448 0006678  48.9965 311.1629 15.68762860280792
STARLINK-11104 [DTC]    
1 59763U 24091L   26068.60756501 -.00000176  00000+0  34079-5 0  9990
2 59763  53.1593 206.4307 0001249 139.7831 220.3279 15.69705938105507
